Name,Postcode,Latitude,Longitude,Type,Telephone number,Website
The Botanist,LS1 6HW ,53.796005,-1.5440288,Bar,0113 205 3240,http://www.thebotanist.uk.com
Rare,LS1 6LY,53.795333,-1.5422144,Bar,0113 246 7013,http://eatdrinkrare.com/
Roland's,LS1 7BT,53.795256,-1.5408793,Bar,0113 318 2964,https://twitter.com/RolandsLeeds
LAB,LS2 8BT,53.802313,-1.5435656,Bar,0113 8877281     ,http://www.lab-leeds.co.uk/
The Brotherhood of Pursuits and Pastimes,LS1 6NU,53.799851,-1.5412239,Bar,01132 434 060,http://www.thisisthebrotherhood.com/
Manahatta,LS1 6PG,53.800252,-1.5403996,Bar,0113 2456275,http://www.arcinspirations.com
Bar Soba,LS1 6PQ,53.800484,-1.5400023,Bar,0113 242 5128,http://www.barsoba.co.uk/
Bilbao Bar,LS1 4BR,53.793741,-1.5489566,Bar,0113 245 4323,http://www.bilbaobar.co.uk
The Living Room,YO1 6DD,53.957172,-1.0846953,Bar,01904 461000,www.thelivingroom.co.uk
Be At One Leeds,LS2 3AD,53.800964,-1.5480593,Bar,0113 887 2784,http://www.beatone.co.uk/cocktail-bar/leeds
Grosvenor Casino Leeds Westgate,LS3 1LW,53.798267,-1.5625567,Bar,0113 3893700,http://www.grosvenorcasinos.com/local-casinos/leeds-westgate
North Brewing Co,LS7 1AH,53.805585,-1.5342675,Bar,0113 345 3290,http://www.northbrewing.com/
Mr Foley's Cask Ale House,LS1 5RG,53.799268,-1.5488973,Bar,0113 242 9674,
Musiquarium,LS5 3BT,53.813341,-1.6067776,Bar,0113 345 3356,
The Arc,LS6 3JJ,53.820814,-1.581492,Bar,0113 2752223,
Hirst's Yard,LS1 6NJ,53.795755,-1.5419517,Bar,0113 2459637,http://www.hirstsyard.co.uk
Hop Leeds,LS1 4BR,53.793741,-1.5489566,Bar,01924 261333,
North Bar,LS1 6NU,53.799851,-1.5412239,Bar,0113 242 4540,http://www.northbar.com
Chilli White,LS2 7DA,53.795488,-1.5404517,Bar,0113 219 4001,http://www.chilliwhite.com/
Tiger Tiger,LS2 8DY,53.800047,-1.5456399,Bar,0113 2366999,http://www.tigertiger.co.uk/leeds/
Oporto,LS1 7BT,53.795256,-1.5408793,Bar,0113 2434008,www.oportobar.co.uk
Verve ,LS1 6PQ,53.800484,-1.5400023,Bar,0113 2442272,
Sela Bar,LS1 6NU,53.799851,-1.5412239,Bar,0113 2429442,
Milo,LS1 6DN,53.796476,-1.5401069,Bar,0113 2457101,
Mook,LS1 6NJ,53.795755,-1.5419517,Bar,0113 2459967,
BRB,LS1 7BT,53.795256,-1.5408793,Bar,0113 243 0315,www.barroombar.com
The Reform Bar,LS1,53.796305,-1.5641256,Bar,0113 244 4080,
Revolution Electric Press,LS2 3AW,53.802282,-1.5472707,Bar,0113 3804992,
Revolution Call Lane,LS1 6DT,53.795375,-1.5413182,Bar,0113 2432778,
Norman Bar,LS1 6DT,53.795375,-1.5413182,Bar,0113 2343988,
Oracle Bar,LS10 1NE,53.793923,-1.5377363,Bar,0113 2469912,
The Brewery Tap,LS1 5DL,53.795488,-1.5451122,Bar,0113 2434414,http://www.brewerytapleeds.co.uk/
Fibre,LS1 6LY,53.795333,-1.5422144,Bar,0870 120 0888,
Queens Court,LS1 6NA,53.795098,-1.5417311,Bar,0113 2459449,
The Wardrobe,LS9 8AH,53.797053,-1.5335725,Bar,0113 3838800,
Stylus,LS2 9JT,53.808478,-1.5527924,Bar,0113 3801332,
Leeds University Union,LS2 9JT,53.808478,-1.5527924,Bar,0113 3801400,
Leeds Beckett Union,LS1 3HE,53.803647,-1.5491389,Bar,0113 2098435,http://www.leedsbeckettsu.co.uk/
The New Penny,LS1 7BT,53.795256,-1.5408793,Bar,0113 2438055,
Viaduct,LS1 6ER,53.795043,-1.542718,Bar,0113 2454863,
Epernay,LS1 3DW,53.800964,-1.5480593,Bar,0113  242 9977,
A Nation Of Shopkeepers,LS2 3AG,53.800548,-1.5474868,Bar,0113 203 1831 ,www.anationofshopkeepers.com
Veuve Champagne Bar,LS7 3PD,53.828005,-1.5376348,Bar,0113 262 1422 ,
The Rock Bar,LS1 6DT,53.795375,-1.5413182,Bar,0113 2468 232,http://www.therockbar.co.uk
Mojo Bar,LS1 6PQ,53.800484,-1.5400023,Bar,0845 6118643,http://www.mojobar.co.uk
Brooklyn Bar and First Floor Grill,LS1 6DT,53.795375,-1.5413182,Bar,0113 3229919       ,http://www.brooklynbar.co.uk
The Shed Bar,LS1 4LJ,53.794707,-1.5429498,Bar,0113 244 1198,http://www.theshedbar.co.uk
The Bierkeller,LS1 5RD,53.799291,-1.5476825,Bar,08455 333 000,
Shooters Sports Bar,LS1 5RD,53.799291,-1.5476825,Bar,08455 333 000,http://www.shootersportsbar.co.uk
Wax Bar and JukeJoint,LS1 6NU,53.799851,-1.5412239,Bar,0113 242 9442,
The Maven Bar,LS1 7DH,53.796294,-1.5396838,Bar,0113 243 6407,http://www.themavenbar.com/
51% Bourbon Lounge ,LS1 6NJ,53.795755,-1.5419517,Bar,0113 3229919 ,http://www.51percentbourbon.co.uk
Bar 166 Bar and Bistro,LS18 4AQ,53.840748,-1.636171,Bistro,0113 322 9910 ,http://www.bar166.co.uk
WharfeBank Brewery,LS21 1FD,53.905207,-1.6384578,Brewery,0113 284 2392,http://www.wharfebankbrewery.co.uk
Yum Yum,LS10 1NE,53.793923,-1.5377363,Cafe,07917 194516,http://www.brewerywharf.net/relaxing/yum-yum
Opposite Cafe University,LS2 9HD,53.807673,-1.5516164,Cafe,0113 243 1321,http://www.oppositecafe.co.uk
Cafe Lux,LS28 7BR,53.795467,-1.6610648,Cafe,0844 4773074,http://www.pudseywellbeingcentre.com
The Arch Cafe,LS2 8JA,53.799559,-1.5425631,Cafe,0113 3893002,http://www.thearchcafeleeds.co.uk/
Costa Coffee Woodhouse Lane,LS2 8LX,53.801374,-1.5447753,Cafe,0113 2450579,http://www.costa.co.uk/
Greedy Pig,LS2 7PN,53.801707,-1.5378026,Cafe,0113 2453596,
David Street Cafe,LS11 5WD,53.791651,-1.5525462,Cafe,0113 2454349,
Filmore & Union,LS1 6AZ,53.797891,-1.541139,Cafe,0113 2443350,http://www.filmoreandunion.com/
Le Chalet,LS1 5JD,53.79814,-1.5474823,Cafe,0113 243 0576,http://www.le-chalet.co.uk
Roots and Fruits,LS1 6PG,53.800252,-1.5403996,Cafe,0113 242 8313,http://www.rootsandfruits.net
Mill Kitchen,LS28 5UJ,53.81405,-1.6725639,Cafe,0113 2571417,http://www.millkitchen.co.uk
National Coal Mining Museum for England,WF4 4RH,53.643479,-1.6194156,Café,01924 848806,http://www.ncm.org.uk/visitors/cafe-shop-picnics
Yorkshire Sculpture Park,WF4 4LG,53.613629,-1.5741253,Café,01924 832633,
Yorkshire Sculpture Park,WF4 4LG,53.613629,-1.5741253,Cafe,01924 832631,http://www.ysp.co.uk
Swithens Farm,LS26 0BT,53.738845,-1.4746659,Cafe,0113 2828828,
Victoria Quarter,LS1 6AZ,53.797891,-1.541139,Café,,www.oppositecafe.co.uk
The Light,LS1 8TL,53.800047,-1.5456399,Cafe ,0113 245 0160,http://www.thelightleeds.co.uk/store/bagel-nash/
Victorian Tiled Hall Cafe,LS1 3AA,53.800362,-1.5481416,Café,0113 247 8256,
The Shake Bar,LS2 8LY,53.801724,-1.5447411,Café,0113 242 6023,
Engine House Cafe,LS11 5DL,53.791524,-1.5520618,Café,0113 391 2980,http://www.enginehousecafe.co.uk/
Cosmopolitan Hotel,LS1 4AE,53.794526,-1.5425116,Cafe - Afternoon Tea,0113 243 6454,http://www.peelhotels.co.uk/hotels/cosmopolitan-hotel-leeds-yorkshire-england/
Rivers Meet,LS26 9EP,53.74004,-1.4162656,Café,01977 279729,www.riversmeetcraftcafe.co.uk
Mint Cafe,LS6 3HW,53.819958,-1.5808929,Café,0113 226 4843,http://www.mint-cafe.co.uk
Cafe Lento,LS6 3HW,53.819958,-1.5808929,Café,07988 660768,www.cafelento.co.uk
HEART Cafe,LS6 3HN,53.820318,-1.5785197,Café,0113 245 4548,http://www.heartcentre.org.uk
Laynes Espresso,LS1 5DL,53.795488,-1.5451122,Café,,http://www.laynesespresso.co.uk/
Munro House,LS9 8AG,53.796784,-1.5339247,Café,,www.cafe164.com/
Sesame,LS1 2LE,53.798087,-1.5502915,Cafe,0113 243 0455,http://www.sesamesushi.co.uk/#_=_
The Sunshine Bakery,LS7 4NZ,53.830749,-1.538182,Café,0113 268 0656,http://www.sunshinebakeryleeds.co.uk/
Out of the Woods- Granary Wharf,LS1 4GL,53.793461,-1.5487015,Cafe-Bar,0113 244 8123,http://www.outofthewoods.me.uk
LS6 Cafe,LS6 2AS,53.8151,-1.562093,Cafe-Bar,0113 294 5464,http://www.ls6cafe.com/
The Riverside,LS1 4BN,53.794667,-1.55385,Cafe-Bar,0113 244 9080,http://www.theriversideleeds.co.uk/
Black Swan,LS1 7BT,53.795256,-1.5408793,Cafe-Bar,0113 8272349,http://www.blackswanleeds.co.uk/
Sociable Folk,LS1 4AP,53.795888,-1.5583155,Cafe-Bar,0113 2637915,http://www.sociablefolk.co.uk
Revolución de Cuba,LS1 6DT,53.795375,-1.5413182,Cafe-Bar,0113 3506556,http://www.revoluciondecuba.com/bar/leeds/
Golf Cafe Bar,LS1 4ED,53.793575,-1.5479109,Cafe-Bar,0113 244 4428,
Santiago,LS1 6PG,53.800252,-1.5403996,Cafe-Bar,0113 2444472,
The New Conservatory,LS1 6JL,53.797966,-1.5443719,Cafe-Bar,0113 2461853,http://www.thenewconservatory.co.uk/
LS17,LS17 7HW,53.85235,-1.5437666,Cafe-Bar,0113 2662594 ,
Out of the Woods- Water Lane,LS11 5WD,53.791651,-1.5525462,Cafe-Bar,0113 244 8123,http://www.outofthewoods.me.uk/
White Cloth Gallery,LS1 4HT,53.795491,-1.5505622,Cafe-Bar,0113 218 1923,
Salt's Deli,LS1 4AG,53.794278,-1.5434707,Delicatessen,0113 243 2323 ,
Pickles & Potter Deli,LS6 3AB,53.820872,-1.5775572,Delicatessen,0113 242 7702 ,www.picklesandpotter.co.uk/contact.php
Hepworth's Deli,LS1 6LQ,53.798616,-1.5427404,Delicatessen,07938 960517,http://www.hepworthsdeli.co.uk/
Friends of Ham,LS1 5DL,53.795488,-1.5451122,Delicatessen,0113 242 0275,www.friendsofham.com
Graveley Fisheries,LS2 7HY,53.79763,-1.5386368,Fish & Chips,0113 243 5126,
Nash's,LS2 8JE,53.80041,-1.5418403,Fish & Chips,0113 285 5960,http://www.nashsfishandchips.com
Holbeck WMC,LS11 9QX,53.785108,-1.5550745,Public House,0113 2456296,http://www.leedssocialclubs.co.uk/#/holbeck-wmc/4527718427
The Packhorse,LS1 6AT,53.797555,-1.5427671,Public House,0113 2424 810,
The Pit,LS1 6PQ,53.800484,-1.5400023,Public House,0113 247 06 01,http://www.arcinspirations.com/the_pit
Belgrave Music Hall and Canteen,LS2 8JP,53.80091,-1.5410149,Public House,0113 2346160,http://www.belgravemusichall.com
360 Champagne & Cocktails,LS1 5AT,53.796806,-1.5443237,Public House,0113 3942415,http://trinityleeds.com/shops/360-champagne-cocktails
Aire Bar,LS2 7EW,53.794872,-1.5391225,Bar,0113 2455500,http://www.airebar.co.uk/
All Bar One Greek Street,LS1 5BN,53.798567,-1.5489352,Public House,0113 245 2485,http://www.allbarone.co.uk/all-bar-one-greek-street-leeds/
Baa Bar Millennium Square,LS2 3AW,53.802282,-1.5472707,Public House,0113 2444213,http://www.baabar.co.uk
Blind Tyger,LS2 8JP,53.80091,-1.5410149,Bar,0113 246 0770,http://www.blindtyger.co.uk
Roundhay Fox,LS8 2EP,53.83951,-1.5040141,Public House,0113 269 3352,http://www.vintageinn.co.uk/theroundhayfoxleeds
Library Pub,LS2 3AP,53.811797,-1.5584825,Public House,0113 2440794,screampubs.co.uk/thelibraryleeds
Carpe Diem,LS1 3ED,53.800598,-1.5486553,Public House,0113 243 6264,
The Cross Keys,LS11 5WD,53.791651,-1.5525462,Public House,0113 243 3711,http://www.the-crosskeys.com
Duck and Drake,LS2 7DR,53.796172,-1.5381974,Public House,0113 246 5806,
Whitelocks,LS1 6HB,53.797207,-1.5433781,Public House,0113 245 3950,http://www.whitelocksleeds.com
The Northern Monkey,LS1 5JW,53.799339,-1.5460726,Public House,0113 242 6630,
The Adelphi,LS10 1JQ,53.792981,-1.5406157,Public House,0113 2456377,
The Reliance,LS2 7PN,53.801707,-1.5378026,Public House,0113 2956060,http://www.the-reliance.co.uk
The Packhorse Pub,LS2 9DX,53.81006,-1.5552661,Public House,0113 2453980,
The New Roscoe,LS7 1DH,53.805451,-1.5321735,Public House,0113 246 0778,
The Fenton,LS2 3ED,53.805634,-1.5495579,Public House,0113 2453908 ,
Hyde Park Pub,LS6 2AS,53.8151,-1.562093,Public House,0113 274 5597,http://www.hydeparkhotelleeds.co.uk/
The Cardigan Arms,LS4 2HQ,53.806664,-1.5831514,Public House,0113 2742000,
The Royal Park,LS6 1NY,53.809647,-1.5702591,Public House,0113 275 7494,http://www.theroyalparkleeds.co.uk
Dry Dock,LS2 3AX,53.804468,-1.5476724,Public House,0113 391 2658,
Bingley Arms,LS17 9DR,53.881585,-1.4487068,Public House,01937 572462,www.bingleyarms.co.uk
The Manor House,LS21 1HB,53.905344,-1.6908008,Public House,01943 463807,
The White Swan,LS1 6LG,53.79895,-1.5431467,Public House,0113 242 0187,http://www.whiteswanleeds.co.uk
Town Hall Tavern,LS1 2RA,53.799362,-1.5523731,Public House,0113 244 0765,http://www.townhalltavernleeds.co.uk/
Sky Lounge,LS1 4BR,53.793741,-1.5489566,Bar,0113 241 1000,http://www.leedscitycentre.doubletree.com
Wetherby Racecourse,LS22 5EJ,53.931883,-1.3585038,Racecourse,,
Dish Dining Room,LS1 6EA,53.795683,-1.54426,Restaurant,0113 318 2274,http://dishdining.co.uk/
Gaucho,LS1 5JF,53.799026,-1.5466681,Restaurant,0113 246 1777,http://www.gauchorestaurants.com
Wasabi Teppan Yaki,LS1 4BR,53.793741,-1.5489566,Restaurant,0113 2451856,http://wasabiteppanyaki.com
Pickled Pepper,LS11 5WH,53.791246,-1.552338,Restaurant,0113 234 4888,http://pickledpepperleeds.co.uk/
The New Ellington,LS1 2EY,53.797239,-1.5541112,Restaurant,0113 834 7225,http://www.thenewellington.com/
Calverley Fish Shop,LS28 5PD,53.829063,-1.6871083,Restaurant,07735 456407,
Littlemoor Fish and Chips,LS28 8AP,53.786613,-1.6576452,Restaurant,0113 204 0800,
The Alchemist,LS1 6HW,53.796005,-1.5440288,Restaurant,0113 246 0540,http://www.thealchemist.uk.com
The Botanist,LS1 6HW ,53.796005,-1.5440288,Restaurant,0113 205 3240,http://thebotanist.uk.com/location/trinity-leeds
Handmade Burger Co,LS1 5ER,53.796319,-1.5461052,Restaurant,0113 246 1742,http://handmadeburger.co.uk/
Giraffe,LS1 5AY,53.796571,-1.5438708,Restaurant,0113 2341122,http://www.giraffe.net/
Rudding Park Hotel,HG3 1JH ,53.973104,-1.4969262,Restaurant,01423 871350,http://www.ruddingpark.co.uk/
Rudding Park Hotel,HG3 1JH ,53.973104,-1.4969262,Restaurant,01423 871350,http://www.ruddingpark.co.uk/
The Wrens Hotel,LS2 8JD,53.800184,-1.5415694,Restaurant,0113 2458888,http://www.thewrenshotel.co.uk/
The Wrens Hotel,LS2 8JD,53.800184,-1.5415694,Restaurant,0113 2458888,http://www.thewrenshotel.co.uk/?
The Tetley,LS10 1JQ,53.792981,-1.5406157,Restaurant,0113 3202423,http://thetetley.org/bar-kitchen/
Roast + Conch,LS1 5EL,53.796319,-1.5461052,Restaurant,0113 2442421,http://www.hotelchocolat.com/uk/restaurants/locations/roast-and-conch
All Bar One Millennium,LS2 3AD,53.800964,-1.5480593,Restaurant,0113 244 8835,http://www.allbarone.co.uk/all-bar-one-millennium-square-leeds
Filmore & Union,LS1 6AZ,53.797891,-1.541139,Restaurant,01132 441518,http://www.filmoreandunion.com
Korks Wine Bar & Brasserie,LS21 1AD,53.904061,-1.6915713,Restaurant,01943 462020,http://www.korks.co.uk
Pho,LS1 5AT,53.796806,-1.5443237,Restaurant - Vietnamese,0113 8345029,http://trinityleeds.com/shops/pho
Rare,LS1 6LY,53.795333,-1.5422144,Restaurant,0113 246 7013,http://eatdrinkrare.com/
The Man Behind The Curtain,LS1 7JH,53.798424,-1.5395239,Restaurant,0113 243 2376,http://www.themanbehindthecurtain.co.uk
MEATliquor Leeds,LS1 5AT,53.796806,-1.5443237,Restaurant & Bar,0113 834 6090,http://www.meatliquor.com/leeds
Bilbao Bar,LS1 4BR,53.793741,-1.5489566,Restaurant - Basque,0113 245 4323,http://www.bilbaobar.co.uk
Cabana Brasilian Barbecue,LS1 5AT,53.796806,-1.5443237,Restaurant - Brasilian Barbecue,0113 3917500,http://www.cabana-brasil.com/
Candlebar,LS1 4GJ,53.793317,-1.5508283,Restaurant - Bar,0113 2446655,http://www.candlebarleeds.co.uk
Nourish,LS1 5BQ,53.797712,-1.5460598,Restaurant,,http://www.nourishrestaurants.co.uk
Grosvenor Casino Leeds Westgate,LS3 1LW,53.798267,-1.5625567,Restaurant,0113 3893700,http://www.grosvenorcasinos.com/local-casinos/leeds-westgate
Smoke Barbecue Leeds,LS2 8BT,53.802313,-1.5435656,Restaurant,0113 3720720,http://www.smokebbq.co.uk
MR PITTA,LS1 6AL,53.797506,-1.5439214,Street Food,,http://www.mrpitta.co.uk
Iberica Leeds,LS1 2BH ,53.799297,-1.5493373,Restaurant,01134 037 007,http://www.ibericarestaurants.com
Byron,LS1 6AW,53.797659,-1.5439046,Restaurant,0113 243 4444,
"The Fishermans Wife, Headingley",LS16 5LT,53.827837,-1.5825919,Restaurant,01132 785679,http://thefishermanswife.co.uk/
Hayley and Clifford Delicatessen,LS8 1AP,53.844134,-1.509355,Restaurant,0113 2370334,
Stew and Oyster Bar,LS2 7EW,53.794872,-1.5391225,Restaurant,0113 242 5299,
Patisserie Valerie,LS1 6AD,53.798381,-1.5446559,Restaurant,0113 242 4739,
Miller and Carter Steakhouse,LS1 8TL,53.800047,-1.5456399,Restaurant,0113 244 3583,http://www.millerandcarter.co.uk/millerandcarterleedslight/
Opposite Cafe- Victoria Quarter,LS1 6AZ,53.797891,-1.541139,Café,07818 433 082,http://www.oppositecafe.co.uk/
Primo's Gourmet Hot Dogs,LS1 7BR,53.795991,-1.5402033,Restaurant,0113 345 8901,http://primosgourmethotdogs.co.uk/
Duke of Wellington,LS17 9DB,53.892842,-1.451739,Restaurant,01937 573259,http://www.thedukew1.co.uk/
Lazy Lounge,LS1 4JY,53.795932,-1.5532901,Restaurant,01132 446055,http://lazy-lounge.com/
It Bar Leeds,LS2 8JD,53.800184,-1.5415694,Restaurant,0113 246 9080,
Hilton Leeds City,LS1 4BX,53.793537,-1.5473193,Restaurant,0113 2442000,http://www3.hilton.com/en/hotels/united-kingdom/hilton-leeds-city-hotel-LEEHNHN/dining/index.html
The Light,LS1 8TL,53.800047,-1.5456399,Restaurant,0113 244 0400,http://redhotworldbuffet.com/restaurants/leeds/
Arts Cafe Bar & Restaurant,LS1 6DT,53.795375,-1.5413182,Restaurant,0113 243 8243,http://www.artscafebar.com/
Azrams Sheesh Mahal,LS4 2DS,53.806173,-1.5815011,Restaurant,0113 230 4161,www.azrams.co.uk
Brasserie Blanc,LS1 4BJ,53.793514,-1.5435245,Restaurant,0113 220 6060,http://www.brasserieblanc.com
Diva Italiana,LS28 7AD,53.797312,-1.6619912,Restaurant,0113 255 5810,http://italiandiva.co.uk/
The Restaurant Bar & Grill,LS1 2AN,53.796636,-1.548161,Restaurant,0113 244 9625,
Ruchee,LS7 2LR,53.833031,-1.5452072,Restaurant,0113 266 6606,http://www.ruchee-leeds.co.uk/
Salute at The White Swan,LS26 0QL,53.749462,-1.4813576,Restaurant,0113 282 0508 ,http://www.saluteleeds.co.uk
Salvo's,LS6 3PX,53.824246,-1.5810477,Restaurant,0113 275 5017 ,
Sandinista,LS2 8JP,53.80091,-1.5410149,Restaurant,0113 305 0372 ,http://www.sandinistaleeds.co.uk
Spice Quarter Leeds,LS2 3AD,53.800964,-1.5480593,Restaurant,0113 246 9241 ,
Thai Edge Leeds,LS1 3DY,53.801066,-1.549298,Restaurant,0113 243 6333 ,leeds@thaiedge.co.uk
Brasserie at West Park,LS16 5LN,53.834212,-1.5937425,Restaurant,0113 275 6333,
Trio Bar & Grill,LS6 3HU,53.820166,-1.581225,Restaurant,0113 203 6090 ,www.arcinspirations.com/trio
Wagamama,LS1 5JD,53.79814,-1.5474823,Restaurant,0113 243 3468 ,http://www.wagamama.com
The Claret Jug at Oulton Hall and Spa,LS26 8HN,53.744679,-1.4586875,Restaurant,0871 222 4690,http://www.qhotels.co.uk/our-locations/oulton-hall
The Wardrobe,LS9 8AH,53.797053,-1.5335725,Restaurant,0113 3838800,
Lounge Bar & Grill,LS2 8JE,53.80041,-1.5418403,Restaurant,0113 2444234,
Ambiente Leeds,LS2 7EW,53.794872,-1.5391225,Restaurant - Mediterranean Tapas ,07974 903 877,http://www.ambiente-tapas.co.uk/
The White House,LS8 2JU,53.828921,-1.5014803,Restaurant,0113 265 6446,
Distrikt,LS1 6DQ,53.796176,-1.5416435,Restaurant,0113 243 3674,http://www.distrikt.co.uk
Dine in the Mansion,LS8 2HH,53.839528,-1.499622,Restaurant,0345 450 4545,http://www.dine.co.uk/venues/themansion
The Queens Hotel,LS1 1PJ,53.795642,-1.5477369,Restaurant,0113 2431323,http://www.qhotels.co.uk/our-locations/the-queens/food-drink/
Radisson Blu Hotel,LS1 8TL,53.800047,-1.5456399,Restaurant,0113 236 6000,http://www.radissonblu.co.uk/hotel-leeds/dining
Weetwood Hall,LS16 5PS,53.837854,-1.5914582,Restaurant,0113 230 6000,http://www.weetwood.co.uk/dining/afternoon-tea/
Barburrito,LS1 8EQ,53.79961,-1.5441871,Restaurant,0113 245 4976,www.barburrito.co.uk
The Hummingbird Kitchen & Bar,LS7 3PG,53.8287,-1.5382197,Restaurant,0113 307 0111,http://hummingbirdkitchen.com/
Neon Cactus,LS1 7BT,53.795256,-1.5408793,Restaurant,0113 245 8400,http://www.neoncactus.co.uk
Midtown Grill,LS1 6ET,53.79566,-1.5430913,Restaurant,0113 236 6399,http://midtowngrill.co.uk
Outlaw's Yacht Club,LS2 7DY,53.796267,-1.5371944,Restaurant,0113 2346998,http://www.outlawsyachtclub.com
The Pour House,LS11 5PS,53.792354,-1.550535,Restaurant,07816 481492,www.thepourhouseleeds.co.uk
Chicago Rib Shack,LS1 5AT,53.796806,-1.5443237,Restaurant - American,0113 3942415,http://trinityleeds.com/shops/chicago-rib-shack
Ho's,LS1 6PJ,53.799873,-1.5400546,Restaurant - Chinese,0113 242 8828,http://www.tripadvisor.co.uk/Restaurant_Review-g186411-d1877193-Reviews-Ho_s-Leeds_West_Yorkshire_England.html
Maxi's Leeds,LS3 1LX,53.799084,-1.5622142,Restaurant - Chinese,0113 2440552,http://www.maxi-s.co.uk/
Red Chilli Restaurant,LS1 3DW,53.800964,-1.5480593,Restaurant - Chinese,0113 242 9688,http://redchillirestaurant.co.uk/leeds/
Zen Rendezvous,LS20 9BT,53.871977,-1.7070766,Restaurant - Chinese,01943 872288 ,www.zenrendezvous.co.uk
Hazlewood Castle Hotel,LS24 9NJ,53.858259,-1.325178,Restaurant - Contemporary European,01937 535353,http://www.hazlewood-castle.co.uk
Brasserie Forty 4,LS2 7EW,53.794872,-1.5391225,Restaurant - Contemporary European,0113 234 3232,http://www.brasserie44.com
Malmaison Leeds,LS1 4AG,53.794278,-1.5434707,Restaurant - Contemporary European,0113 398 1000,http://www.malmaison-leeds.com/indulge/brasserie
City Cafe,LS1 4BR,53.793741,-1.5489566,Restaurant - Contemporary European,0113 243 8885,http://www.leedscitycentre.doubletree.com
Miller & Carter Steakhouse,LS25 1NB,53.787345,-1.4071704,Restaurant - Contemporary European,0113 286 2100,http://www.millerandcarter.co.uk/millerandcartergarforth/
Dough Bistro,LS16 5BD,53.834082,-1.6031494,Restaurant- English,0113 278 7255,http://doughleeds.com/
Crafthouse,LS16HW,53.796005,-1.5440288,Restaurant - English,0113 897 0444,http://www.crafthouse-restaurant.com
Kobe,LS18 4QB,53.83229,-1.6420485,Restaurant - English,0113 2588439,http://www.arcinspirations.com/kobe
Chip + Fish,LS1 5AT,53.796806,-1.5443237,Restaurant - English,0113 2440338,http://trinityleeds.com/shops/chip-fish
Pieminister,LS1 6DQ,53.796176,-1.5416435,Restaurant - English,0113 859 1681,http://www.pieminister.co.uk/restaurants/leeds/
The Light,LS1 8TL,53.800047,-1.5456399,Restaurant - English,0113 2439353,http://browns-restaurants.co.uk/locations/leeds/
Bretts Fish Restaurant,LS6 3HE,53.821265,-1.5793001,Restaurant - English,0113 232 3344,
Calverley Grill at Oulton Hall Hotel,LS26 8HN,53.744679,-1.4586875,Restaurant - English,0871 222 4690,http://www.qhotels.co.uk/our-locations/oulton-hall/
The Gatehouse at Kirkstall Abbey,LS5 3EH,53.822375,-1.6071032,Restaurant - English,0113 278 1233,www.boutique-catering.co.uk
Blackhouse Restaurant and Bar,LS1 5PS,53.798208,-1.5490301,Restaurant - English,0113 246 0669,http://www.blackhouse.uk.com
Croft Street Fisheries,LS28 5HA,53.81203,-1.6732631,Restaurant - English,0113 256 0383,http://www.croftstreetfisheries.co.uk/
The Light,LS1 8TL,53.800047,-1.5456399,Restaurant - French,0113 246 1620,http://www.caferouge.co.uk/
Kendell's Bistro,LS9 8AH,53.797053,-1.5335725,Restaurant - French,0113 2436553,
Olive Tree Greek Restaurant,LS13 1NG,53.825127,-1.6705179,Restaurant - Greek,01132 569283,www.olivetreegreekrestaurant.co.uk
The 1875 Restaurant,LS29 6JH,53.8915,-1.7347089,Restaurant - Indian,01943 871811,http://the1875.co.uk/
Bundobust,LS1 5DQ,53.795237,-1.5453275,Restaurant - Indian,0113 2431248,http://bundobust.com/
Tharavadu,LS1 5DQ,53.795237,-1.5453275,Restaurant - Indian - Kerala Cuisine,0113 244 0500,http://www.tharavadurestaurants.com
Aagrah Leeds,LS9 8AH,53.797053,-1.5335725,Restaurant - Indian,0113 245 5667,www.aagrah.com
Aagrah Pudsey,LS28 8ED,53.803414,-1.6951188,Restaurant - Indian,01274 668818,www.aagrah.com
Hansa's Restaurant,LS2 7PN,53.801707,-1.5378026,Restaurant - Indian,0113 244 4408,http://www.hansasrestaurant.com
Mumtaz Restaurant,LS10 1QD,53.790868,-1.5332464,Restaurant - Indian,0113 242 4211 ,
Aagrah Garforth,LS25 2HF,53.798419,-1.3686489,Restaurant - Indian,0113 287 6606,www.aagrah.com
City 3 Restaurant,BD1 5SH,53.79195,-1.7515942,Restaurant - International,01274 734734,http://thebradfordhotel.com/dining/
Fazenda Rodizio Bar and Grill,LS1 4GL,53.793461,-1.5487015,Restaurant - International,0113 247 1182,http://www.fazenda.co.uk
Ciao Bella,LS10 1JF,53.793687,-1.539515,Restaurant - Italian,0113 2469444,http://www.ciaobellarestaurantleeds.co.uk/
LIVINitaly,LS1 4BR,53.793741,-1.5489566,Restaurant - Italian,0113 243 0090,http://www.livinitaly.com
Carluccios,LS1 5AT,53.796806,-1.5443237,Restaurant - Italian,0113 2469576,http://www.carluccios.com
Bella Italia,LS1 6BR,53.796789,-1.5420922,Restaurant - Italian,01132 454630,
Viva,LS1 7HG,53.794289,-1.5418917,Restaurant - Italian,0113 242 0185,http://www.vivaitalianrestaurant.com
Primo Ristorante,LS1 4JY,53.795932,-1.5532901,Restaurant - Italian,0113 244 8443 ,
The Light,LS1 8TL,53.800047,-1.5456399,Restaurant - Italian/American,0113 246 9752,http://www.frankieandbennys.com/
Bibis Italianissimo,LS1 4AG,53.794278,-1.5434707,Restaurant - Italian,0113 243 0905,http://www.bibisrestaurant.com
Salvo's,LS6 3PX,53.824246,-1.5810477,Restaurant - Italian,0113 275 5017 ,http://www.salvos.co.uk/salumeria-restaurant
Casa Mia Coffee Shop,LS7 3QY,53.829072,-1.5393399,Restaurant - Italian,0113 266 1269,http://www.casamiaonline.com/
Jamie's Italian,LS1 5JL,53.797546,-1.5473521,Restaurant - Italian,0113 322 5400,http://www.jamiesitalian.co.uk/leeds
Carluccio's,LS1 5SX,53.796736,-1.54378,Restaurant - Italian,0113 242 2038,www.carluccios.com
Frankie & Benny's - Crown Point,LS10 1ET,53.788766,-1.5405251,Restaurant - Italian,01132 454882,http://www.frankieandbennys.com
Frankie & Benny's - Kirkstall Road,LS4 2DG,53.804363,-1.5833412,Restaurant - Italian,0113 203 8888,www.frankieandbennys.com
Yo! Sushi,LS1 5AY,53.796571,-1.5438708,Restaurant - Japanese,0113 2133621,http://www.yosushi.com/
Wagamama Restaurant,LS1 5AY,53.796571,-1.5438708,Restaurant - Japanese,0113 246 9736,http://www.wagamama.com/
Wasabi,LS1 5AT,53.796806,-1.5443237,Restaurant - Japanese,0113 234 0438,http://www.wasabi.uk.com
Fuji Hiro,LS2 8NJ,53.801584,-1.5432547,Restaurant - Japanese,0113 2439184,
Cielo Blanco,LS1 5AT,53.796806,-1.5443237,Restaurant - Mexican,0113 2469709,http://www.cieloblanco.co.uk
Barburrito,LS1 6HW ,53.796005,-1.5440288,Restaurant - Mexican,0113 246 1286,http://www.barburrito.co.uk/
Tortilla,LS1 5AT,53.796806,-1.5443237,Restaurant - Mexican,0113 2346518,http://trinityleeds.com/shops/tortilla
The Light,LS1 8TL,53.800047,-1.5456399,Tea/Coffee Shop,0113 245 4976,http://www.barburrito.co.uk/
Chino Latino ,LS1 5NS,53.796222,-1.5466224,Restaurant - Pan Asian,0113 380 4080,http://www.chinolatino.co.uk
PizzaLuxe,LS1 5AT,53.796806,-1.5443237,Restaurant - Pizza,0113 2471171,http://trinityleeds.com/shops/pizzaluxe
The Light,LS1 8TL,53.800047,-1.5456399,Restaurant - Portuguese,0113 242 8908,http://www.thelightleeds.co.uk/store/nandos/
The Duncan,LS1 6DL,53.795836,-1.5419508,Restaurant - Pub,0113 2459916,
Jake's Bar,LS1 7BT,53.795256,-1.5408793,Restaurant - Pub,0113 243 1110,http://www.jakesbar.co.uk
The Garden Gate,LS10 2QB,53.78076,-1.5273489,Restaurant - Pub,0113 2777705,http://www.gardengateleeds.co.uk/
Further North,LS7 4NZ,53.830749,-1.538182,Restaurant - Pub,0113 2370962,http://northbar.com/further-north/
Alfred,LS6 4HY,53.828371,-1.5658288,Restaurant - Pub,0113 2780779,http://northbar.com/alfred/
The Hop,LS1 4BR,53.793741,-1.5489566,Restaurant - Pub,0113 243 9854,http://www.thehop-leeds.co.uk/
Angelica,LS1 6HW,53.796005,-1.5440288,Restaurant - Pub,0113 897 0099,http://www.angelica-restaurant.com/
The Fleece,LS21 3DT,53.904303,-1.6985861,Restaurant - Pub,01943 465 034,http://www.fleece-otley.co.uk
Baracoa Luxe Bar,LS1 6DT,53.795375,-1.5413182,Restaurant - Pub,0113 245 2324,http://www.baracoaluxebar.com/
Crowd of Favours,LS2 7EA,53.79617,-1.5376812,Restaurant - Pub,0113 246 9405,http://www.crowdoffavours.co.uk
The Grove Inn,LS11 5PL,53.790924,-1.5478787,Restaurant - Pub,0113 244 1440   ,
The Original Oak,LS6 2DG,53.819634,-1.5757317,Restaurant - Pub,0113 275 1322,http://www.theoriginaloakleeds.co.uk
The Mustard Pot,LS7 3QY,53.829072,-1.5393399,Restaurant - Pub,0113 269 56 99,http://www.themustardpot.com
Shears Yard,LS2 7EH,53.795086,-1.5387862,Restaurant - Pub,0113 244 4144,http://www.shearsyard.com
The Atlas Pub,LS1 2HL,53.797331,-1.549829,Restaurant - Pub,0113 244 29 06,http://www.atlaspubleeds.com
The Black Prince,LS1 5DA,53.795581,-1.5458703,Restaurant - Pub,01132 458 063,http://www.sizzlingpubs.co.uk/theblackprinceleeds/
Tiger Tiger,LS2 8DY,53.800047,-1.5456399,Restaurant,0113 2366999,http://www.tigertiger.co.uk/leeds/
Midnight Bell,LS11 5QN,53.791692,-1.5513618,Bar,0113 2445044,http://www.midnightbell.co.uk
Weetwood Hall,LS16 5PS,53.837854,-1.5914582,Restaurant - Pub,0113 230 6000,http://www.weetwood.co.uk/dining/stables-pub/
Around the World in 80 Beers,LS1 5RD,53.799291,-1.5476825,Restaurant - Pub,0845 533 3000,http://www.atw80.com
Loch Fyne,LS1 2ES,53.796944,-1.5473737,Restaurant - Seafood,0113 391 7550,
Azucar Bar,LS10 1NE,53.793923,-1.5377363,Restaurant - South American,0113 2435761,
Las Iguanas,LS1 2HD,53.795488,-1.5404517,Restaurant - South American,0113 243 9533,http://www.iguanas.co.uk
Pintura,LS1 5ER,53.796319,-1.5461052,Restaurant - Spanish,0113 430 0915,http://www.pinturakitchen.co.uk/
La Rambla –Tapas & Wine,LS1 2AJ,53.798561,-1.5496185,Restaurant - Spanish,0113 2434941,http://www.laramblatapas.co.uk
Thai Sabai,LS6 3HP,53.820083,-1.5807398,Restaurant - Thai,0113 275 8613,http://www.thaisabaileeds.co.uk/index.htm
Lemongrass,LS1 6NU,53.799851,-1.5412239,Restaurant - Thai,0113 318 4306,
Bang Wok,LS1 4SP,53.794243,-1.5461125,Restaurant - Thai,,http://www.bangwok.com
Chaophraya,LS1 4AG,53.794278,-1.5434707,Restaurant - Thai,0113 244 9339,http://chaophraya.co.uk/
Sukhothai - Chapel Allerton,LS7 4PE,53.829982,-1.537446,Restaurant - Thai,01132 370141,
Sukhothai - Headingley,LS6 3NX,53.822981,-1.5818806,Restaurant - Thai,0113 278 1234,http://www.sukhothai.co.uk/headingley.php
Sukhothai - South Parade,LS1 5QS,53.798853,-1.54834,Restaurant - Thai,0113 242 2795,http://www.sukhothai.co.uk
Little Tokyo,LS1 6DE,53.79648,-1.5410936,Restaurant - Thai,0113 2439090  ,
Global Tribe Cafe,LS1 6LG,53.79895,-1.5431467,Restaurant - Vegetarian,0113 318 4289,http://globaltribecafe.com/
Cheerful Chilli,LS21 3DD,53.893396,-1.671196,Restaurant - Vegetarian,01943 466567,
Mango Vegetarian,LS22 6NQ,53.928883,-1.3865569,Restaurant - Vegetarian,01937 585 755,http://www.mangovegetarian.com
Vanilla One,LS1 7BR,53.795991,-1.5402033,Tea/Coffee Shop,0113 234 0383,http://www.facebook.com/vanillaoneleeds
Mrs Atha's,LS1 6DE,53.79648,-1.5410936,Tea/Coffee Shop,0113 245 5515,http://mrsathasleeds.com/
Le Chalet,LS1 5JD,53.79814,-1.5474823,Tea/Coffee Shop,0113 243 0576,http://www.le-chalet.co.uk
Just Grand! Vintage Tearoom,LS1 6PG,53.800252,-1.5403996,Tea/Coffee Shop,0113 2431306 ,http://www.just-grand.co.uk
Harvey Nichols - Restaurant,LS1 6AZ,53.797891,-1.541139,Tea/Coffee Shop,0113 204 8000,http://www.harveynichols.com/restaurant/leeds-dining/espresso-bar/
The Light,LS1 8TL,53.800047,-1.5456399,Tea/Coffee Shop,0113 2454242,http://www.labottegamilanese.co.uk
The Bowery,LS6 2AL,53.823359,-1.5794766,Tea/Coffee Shop,0113 2242284,http://thebowery.org/coffee_bar.html
The Queens Hotel,LS1 1PJ,53.795642,-1.5477369,Tea/Coffee Shop,0113 2431323,http://www.qhotels.co.uk/our-locations/the-queens/
The Decanter,LS1 5JQ,53.798757,-1.5466407,Winebar,,http://www.thedecanter.co.uk
The Foundry Wine Bar,LS11 5WH,53.791246,-1.552338,Winebar,0113 245 0390,http://www.thefoundrywinebar.co.uk
